[{"OBJECT_NAME":"TIANQI-24","OBJECT_ID":"2023-135D","EPOCH":"2026-03-09T20:57:37.180800","MEAN_MOTION":14.23089643,"ECCENTRICITY":0.00134171,"INCLINATION":49.9722,"RA_OF_ASC_NODE":210.6392,"ARG_OF_PERICENTER":273.0428,"MEAN_ANOMALY":86.8949,"EPHEMERIS_TYPE":0,"CLASSIFICATION_TYPE":"U","NORAD_CAT_ID":57795,"ELEMENT_SET_NO":999,"REV_AT_EPOCH":13048,"BSTAR":0.00014051861,"MEAN_MOTION_DOT":1.6e-6,"MEAN_MOTION_DDOT":0},{"OBJECT_NAME":"NOAA 16 DEB","OBJECT_ID":"2000-055FQ","EPOCH":"2026-03-08T14:50:42.133344","MEAN_MOTION":14.26930322,"ECCENTRICITY":0.00027263,"INCLINATION":98.6292,"RA_OF_ASC_NODE":124.2608,"ARG_OF_PERICENTER":93.397,"MEAN_ANOMALY":266.7522,"EPHEMERIS_TYPE":0,"CLASSIFICATION_TYPE":"U","NORAD_CAT_ID":41264,"ELEMENT_SET_NO":999,"REV_AT_EPOCH":52748,"BSTAR":0.0018189529,"MEAN_MOTION_DOT":4.378e-5,"MEAN_MOTION_DDOT":0}]
